<?xml version="1.0" encoding="UTF-8" standalone="yes"?>
<weatherReport>
    <zipCode>95050</zipCode>
    <report>KOKC 051130Z 051212 14008KT 5SM BR BKN030 TEMPO 1316 1 1/2SM BR</report>
</weatherReport>
